{"type": "FeatureCollection", "features": [ {"type": "Feature", "properties": {"norad_id": 35462, "name": "COSMOS 2251 DEB", "group": "cosmos-2251-debris", "lat": 26.41175077241106, "lon": 80.13815591234386, "alt_km": 847.1165146405638, "timestamp": "2025-12-12T22:42:12.941803+00:00", "meta": {"OBJECT_NAME": "COSMOS 2251 DEB", "OBJECT_ID": "1993-036ALG", "EPOCH": "2025-12-11T03:59:29.501088", "MEAN_MOTION": 14.29274316, "ECCENTRICITY": 0.00868722, "INCLINATION": 74.0365, "RA_OF_ASC_NODE": 271.5419, "ARG_OF_PERICENTER": 307.0131, "MEAN_ANOMALY": 52.3091, "EPHEMERIS_TYPE": 0, "CLASSIFICATION_TYPE": "U", "NORAD_CAT_ID": 35462, "ELEMENT_SET_NO": 999, "REV_AT_EPOCH": 66358, "BSTAR": 0.0025437171, "MEAN_MOTION_DOT": 6.718e-05, "MEAN_MOTION_DDOT": 0}, "tle": {"line1": "1 35462U 93036ALG 25345.16631367  .00006718  00000+0  25437-2 0  9997", "line2": "2 35462  74.0365 271.5419 0086872 307.0131  52.3091 14.29274316663589"}}, "geometry": {"type": "Point", "coordinates": [80.13815591234386, 26.41175077241106]}}, {"type": "Feature", "properties": {"norad_id": 35465, "name": "COSMOS 2251 DEB", "group": "cosmos-2251-debris", "lat": -40.56847023010602, "lon": 30.86565713471184, "alt_km": 782.2131445519944, "timestamp": "2025-12-12T22:42:12.941813+00:00", "meta": {"OBJECT_NAME": "COSMOS 2251 DEB", "OBJECT_ID": "1993-036ALK", "EPOCH": "2025-12-11T14:05:22.272576", "MEAN_MOTION": 14.44314277, "ECCENTRICITY": 0.0064083, "INCLINATION": 73.9997, "RA_OF_ASC_NODE": 199.178, "ARG_OF_PERICENTER": 359.7129, "MEAN_ANOMALY": 0.398, "EPHEMERIS_TYPE": 0, "CLASSIFICATION_TYPE": "U", "NORAD_CAT_ID": 35465, "ELEMENT_SET_NO": 999, "REV_AT_EPOCH": 87225, "BSTAR": 0.00056971702, "MEAN_MOTION_DOT": 1.982e-05, "MEAN_MOTION_DDOT": 0}, "tle": {"line1": "1 35465U 93036ALK 25345.58706334  .00001982  00000+0  56972-3 0  9990", "line2": "2 35465  73.9997 199.1780 0064083 359.7129   0.3980 14.44314277872252"}}, "geometry": {"type": "Point", "coordinates": [30.86565713471184, -40.56847023010602]}}, {"type": "Feature", "properties": {"norad_id": 35469, "name": "COSMOS 2251 DEB", "group": "cosmos-2251-debris", "lat": 58.466648874866095, "lon": 51.33000745755092, "alt_km": 744.17483782206, "timestamp": "2025-12-12T22:42:12.941823+00:00", "meta": {"OBJECT_NAME": "COSMOS 2251 DEB", "OBJECT_ID": "1993-036ALP", "EPOCH": "2025-12-10T09:08:19.185504", "MEAN_MOTION": 14.49816344, "ECCENTRICITY": 0.00770564, "INCLINATION": 74.0175, "RA_OF_ASC_NODE": 28.3045, "ARG_OF_PERICENTER": 184.2675, "MEAN_ANOMALY": 175.7838, "EPHEMERIS_TYPE": 0, "CLASSIFICATION_TYPE": "U", "NORAD_CAT_ID": 35469, "ELEMENT_SET_NO": 999, "REV_AT_EPOCH": 88077, "BSTAR": 0.00017261696, "MEAN_MOTION_DOT": 6.62e-06, "MEAN_MOTION_DDOT": 0}, "tle": {"line1": "1 35469U 93036ALP 25344.38077761  .00000662  00000+0  17262-3 0  9999", "line2": "2 35469  74.0175  28.3045 0077056 184.2675 175.7838 14.49816344880776"}}, "geometry": {"type": "Point", "coordinates": [51.33000745755092, 58.466648874866095]}}, {"type": "Feature", "properties": {"norad_id": 35475, "name": "COSMOS 2251 DEB", "group": "cosmos-2251-debris", "lat": -63.536481369038405, "lon": 130.08416798050033, "alt_km": 660.104385178558, "timestamp": "2025-12-12T22:42:12.941833+00:00", "meta": {"OBJECT_NAME": "COSMOS 2251 DEB", "OBJECT_ID": "1993-036ALV", "EPOCH": "2025-12-11T04:32:24.397728", "MEAN_MOTION": 14.69672963, "ECCENTRICITY": 0.0020715, "INCLINATION": 74.0218, "RA_OF_ASC_NODE": 168.6316, "ARG_OF_PERICENTER": 241.6162, "MEAN_ANOMALY": 118.292, "EPHEMERIS_TYPE": 0, "CLASSIFICATION_TYPE": "U", "NORAD_CAT_ID": 35475, "ELEMENT_SET_NO": 999, "REV_AT_EPOCH": 65594, "BSTAR": 0.0028598463, "MEAN_MOTION_DOT": 0.00017092, "MEAN_MOTION_DDOT": 0}, "tle": {"line1": "1 35475U 93036ALV 25345.18917127  .00017092  00000+0  28598-2 0  9992", "line2": "2 35475  74.0218 168.6316 0020715 241.6162 118.2920 14.69672963655941"}}, "geometry": {"type": "Point", "coordinates": [130.08416798050033, -63.536481369038405]}}, {"type": "Feature", "properties": {"norad_id": 35476, "name": "COSMOS 2251 DEB", "group": "cosmos-2251-debris", "lat": 36.24264392735035, "lon": -131.64941470532142, "alt_km": 642.2504970508971, "timestamp": "2025-12-12T22:42:12.941843+00:00", "meta": {"OBJECT_NAME": "COSMOS 2251 DEB", "OBJECT_ID": "1993-036ALW", "EPOCH": "2025-12-12T06:03:58.512384", "MEAN_MOTION": 14.7566701, "ECCENTRICITY": 0.0017575, "INCLINATION": 73.9781, "RA_OF_ASC_NODE": 61.8707, "ARG_OF_PERICENTER": 43.3307, "MEAN_ANOMALY": 17.2447, "EPHEMERIS_TYPE": 0, "CLASSIFICATION_TYPE": "U", "NORAD_CAT_ID": 35476, "ELEMENT_SET_NO": 999, "REV_AT_EPOCH": 87880, "BSTAR": 0.0026204434, "MEAN_MOTION_DOT": 0.00017965, "MEAN_MOTION_DDOT": 0}, "tle": {"line1": "1 35476U 93036ALW 25346.25276056  .00017965  00000+0  26204-2 0  9992", "line2": "2 35476  73.9781  61.8707 0017575  43.3307  17.2447 14.75667010878809"}}, "geometry": {"type": "Point", "coordinates": [-131.64941470532142, 36.24264392735035]}}, {"type": "Feature", "properties": {"norad_id": 35580, "name": "COSMOS 2251 DEB", "group": "cosmos-2251-debris", "lat": 6.987465934031327, "lon": -3.6550761239033913, "alt_km": 749.0252413702356, "timestamp": "2025-12-12T22:42:12.941853+00:00", "meta": {"OBJECT_NAME": "COSMOS 2251 DEB", "OBJECT_ID": "1993-036ALX", "EPOCH": "2025-12-10T21:17:20.461632", "MEAN_MOTION": 13.83850084, "ECCENTRICITY": 0.0281508, "INCLINATION": 73.9016, "RA_OF_ASC_NODE": 181.8733, "ARG_OF_PERICENTER": 187.4326, "MEAN_ANOMALY": 172.2587, "EPHEMERIS_TYPE": 0, "CLASSIFICATION_TYPE": "U", "NORAD_CAT_ID": 35580, "ELEMENT_SET_NO": 999, "REV_AT_EPOCH": 62231, "BSTAR": 0.0026077, "MEAN_MOTION_DOT": 3.904e-05, "MEAN_MOTION_DDOT": 0}, "tle": {"line1": "1 35580U 93036ALX 25344.88704238  .00003904  00000+0  26077-2 0  9999", "line2": "2 35580  73.9016 181.8733 0281508 187.4326 172.2587 13.83850084622311"}}, "geometry": {"type": "Point", "coordinates": [-3.6550761239033913, 6.987465934031327]}}, {"type": "Feature", "properties": {"norad_id": 35583, "name": "COSMOS 2251 DEB", "group": "cosmos-2251-debris", "lat": -24.891426241487753, "lon": 39.37566838445752, "alt_km": 807.3231028604941, "timestamp": "2025-12-12T22:42:12.941863+00:00", "meta": {"OBJECT_NAME": "COSMOS 2251 DEB", "OBJECT_ID": "1993-036AMA", "EPOCH": "2025-12-11T08:27:41.040576", "MEAN_MOTION": 13.55331682, "ECCENTRICITY": 0.03855091, "INCLINATION": 73.917, "RA_OF_ASC_NODE": 214.2645, "ARG_OF_PERICENTER": 238.8692, "MEAN_ANOMALY": 117.4074, "EPHEMERIS_TYPE": 0, "CLASSIFICATION_TYPE": "U", "NORAD_CAT_ID": 35583, "ELEMENT_SET_NO": 999, "REV_AT_EPOCH": 82393, "BSTAR": 0.00091795353, "MEAN_MOTION_DOT": 1e-05, "MEAN_MOTION_DDOT": 0}, "tle": {"line1": "1 35583U 93036AMA 25345.35255834  .00001000  00000+0  91795-3 0  9993", "line2": "2 35583  73.9170 214.2645 0385509 238.8692 117.4074 13.55331682823931"}}, "geometry": {"type": "Point", "coordinates": [39.37566838445752, -24.891426241487753]}}, {"type": "Feature", "properties": {"norad_id": 35585, "name": "COSMOS 2251 DEB", "group": "cosmos-2251-debris", "lat": 5.757404722920679, "lon": 166.40802427778596, "alt_km": 961.029185301546, "timestamp": "2025-12-12T22:42:12.941874+00:00", "meta": {"OBJECT_NAME": "COSMOS 2251 DEB", "OBJECT_ID": "1993-036AMC", "EPOCH": "2025-12-11T11:41:44.780640", "MEAN_MOTION": 13.75243352, "ECCENTRICITY": 0.03105022, "INCLINATION": 73.9732, "RA_OF_ASC_NODE": 350.5027, "ARG_OF_PERICENTER": 263.0041, "MEAN_ANOMALY": 255.5124, "EPHEMERIS_TYPE": 0, "CLASSIFICATION_TYPE": "U", "NORAD_CAT_ID": 35585, "ELEMENT_SET_NO": 999, "REV_AT_EPOCH": 64046, "BSTAR": 0.0018464241, "MEAN_MOTION_DOT": 2.49e-05, "MEAN_MOTION_DDOT": 0}, "tle": {"line1": "1 35585U 93036AMC 25345.48732385  .00002490  00000+0  18464-2 0  9995", "line2": "2 35585  73.9732 350.5027 0310502 263.0041 255.5124 13.75243352640467"}}, "geometry": {"type": "Point", "coordinates": [166.40802427778596, 5.757404722920679]}}, {"type": "Feature", "properties": {"norad_id": 35586, "name": "COSMOS 2251 DEB", "group": "cosmos-2251-debris", "lat": -10.170871290944124, "lon": -60.79923771862733, "alt_km": 1366.4471414629852, "timestamp": "2025-12-12T22:42:12.941884+00:00", "meta": {"OBJECT_NAME": "COSMOS 2251 DEB", "OBJECT_ID": "1993-036AMD", "EPOCH": "2025-12-09T15:43:44.050080", "MEAN_MOTION": 13.52082947, "ECCENTRICITY": 0.0404687, "INCLINATION": 74.02, "RA_OF_ASC_NODE": 307.4172, "ARG_OF_PERICENTER": 183.4058, "MEAN_ANOMALY": 354.3417, "EPHEMERIS_TYPE": 0, "CLASSIFICATION_TYPE": "U", "NORAD_CAT_ID": 35586, "ELEMENT_SET_NO": 999, "REV_AT_EPOCH": 60340, "BSTAR": 0.00055296, "MEAN_MOTION_DOT": 5.88e-06, "MEAN_MOTION_DDOT": 0}, "tle": {"line1": "1 35586U 93036AMD 25343.65537095  .00000588  00000+0  55296-3 0  9995", "line2": "2 35586  74.0200 307.4172 0404687 183.4058 354.3417 13.52082947603405"}}, "geometry": {"type": "Point", "coordinates": [-60.79923771862733, -10.170871290944124]}}, {"type": "Feature", "properties": {"norad_id": 35587, "name": "COSMOS 2251 DEB", "group": "cosmos-2251-debris", "lat": -50.36560976384784, "lon": 37.765676239505105, "alt_km": 627.5087479043723, "timestamp": "2025-12-12T22:42:12.941894+00:00", "meta": {"OBJECT_NAME": "COSMOS 2251 DEB", "OBJECT_ID": "1993-036AME", "EPOCH": "2025-12-09T21:31:13.107072", "MEAN_MOTION": 14.71502807, "ECCENTRICITY": 0.01026846, "INCLINATION": 74.0052, "RA_OF_ASC_NODE": 63.9631, "ARG_OF_PERICENTER": 252.2421, "MEAN_ANOMALY": 106.7524, "EPHEMERIS_TYPE": 0, "CLASSIFICATION_TYPE": "U", "NORAD_CAT_ID": 35587, "ELEMENT_SET_NO": 999, "REV_AT_EPOCH": 66304, "BSTAR": 0.00042332871, "MEAN_MOTION_DOT": 2.817e-05, "MEAN_MOTION_DDOT": 0}, "tle": {"line1": "1 35587U 93036AME 25343.89667948  .00002817  00000+0  42333-3 0  9998", "line2": "2 35587  74.0052  63.9631 0102684 252.2421 106.7524 14.71502807663044"}}, "geometry": {"type": "Point", "coordinates": [37.765676239505105, -50.36560976384784]}}]}